TELSTAR 12V             
1 41036U 15068A   26063.38794803 -.00000131  00000+0  00000+0 0  9997
2 41036   0.0203 234.8927 0002409 112.5826 299.3135  1.00272414 37571
ELEKTRO-L 2             
1 41105U 15074A   26062.86880331 -.00000128  00000+0  00000+0 0  9991
2 41105   6.4296  71.8188 0003467 237.1165 150.9510  1.00270829 37457
COSMOS 2513             
1 41121U 15075A   26063.65455256 -.00000149  00000+0  00000+0 0  9995
2 41121   0.0444 104.8695 0002086 241.3646 132.0438  1.00275474 37504
EXPRESS-AMU1            
1 41191U 15082A   26063.36572510  .00000144  00000+0  00000+0 0  9995
2 41191   0.0207 134.3822 0003213 193.4399   2.0190  1.00270888 37216
GAOFEN-4                
1 41194U 15083A   26063.03528046 -.00000347  00000+0  00000+0 0  9994
2 41194   0.3787  83.8226 0003668  85.1751 111.1639  1.00269549 37474
BELINTERSAT-1           
1 41238U 16001A   26063.29905912  .00000095  00000+0  00000+0 0  9992
2 41238   0.0516 282.6224 0001467  46.7380 351.8351  1.00269977 37180
IRNSS-1E                
1 41241U 16003A   26062.89409245 -.00000293  00000+0  00000+0 0  9992
2 41241  33.0059  61.2659 0017752 189.2049 344.8575  1.00274986 37023
EUTELSAT 9B             
1 41310U 16005A   26063.37683795  .00000050  00000+0  00000+0 0  9999
2 41310   0.0258  60.9038 0004288 258.7516 347.1290  1.00274710 37062
SES-9                   
1 41380U 16013A   26063.33003138 -.00000357  00000+0  00000+0 0  9999
2 41380   0.0427 307.7822 0001514  86.5529 354.8377  1.00271983 36384
EUTELSAT 65 WEST A      
1 41382U 16014A   26063.15044815 -.00000289  00000+0  00000+0 0  9993
2 41382   0.0706  41.1938 0002240 297.2475 172.4239  1.00272377 36481
IRNSS-1F                
1 41384U 16015A   26063.16337440  .00000147  00000+0  00000+0 0  9998
2 41384   5.0837  99.2772 0019190 188.0015 325.8594  1.00271118 36617
BEIDOU-2 IGSO-6         
1 41434U 16021A   26063.64156169 -.00000150  00000+0  00000+0 0  9996
2 41434  60.0869  39.0755 0059805 233.4233 216.5756  1.00278471 36431
IRNSS-1G                
1 41469U 16027A   26063.62344865 -.00000344  00000+0  00000+0 0  9995
2 41469   4.9357 100.0077 0005294 314.0535 102.2828  1.00268597 36134
JCSAT-2B                
1 41471U 16028A   26062.90226302 -.00000179  00000+0  00000+0 0  9990
2 41471   0.0087 120.7498 0001124 223.0582 296.6414  1.00271223 36071
THAICOM 8               
1 41552U 16031A   26063.60120691 -.00000132  00000+0  00000+0 0  9995
2 41552   0.0693  47.8592 0004026 304.1332 105.3246  1.00272500 35679
INTELSAT 31 (IS-31)     
1 41581U 16035A   26063.62762602 -.00000161  00000+0  00000+0 0  9999
2 41581   0.0381 249.4491 0001728 348.0097  55.8020  1.00270690 35637
BEIDOU-2 G7             
1 41586U 16037A   26063.65597302 -.00000363  00000+0  00000+0 0  9996
2 41586   1.4621  68.2063 0007602 341.8962  98.9452  1.00267304  5840
ABS-2A (MONGOLSAT-1)    
1 41588U 16038A   26063.63547586 -.00000094  00000+0  00000+0 0  9997
2 41588   0.0115 141.9968 0001964 152.2568 171.6066  1.00270888 35663
EUTELSAT 117 WEST B     
1 41589U 16038B   26063.36225455 -.00000023  00000+0  00000+0 0  9998
2 41589   0.0384 342.0206 0000210 243.2130 310.2920  1.00271881 35619
BRISAT                  
1 41591U 16039A   26063.42891916  .00000000  00000+0  00000+0 0  9994
2 41591   0.0208 150.6767 0002185 195.3165 121.0961  1.00268538 35562
ECHOSTAR 18             
1 41592U 16039B   26063.15044815 -.00000294  00000+0  00000+0 0  9999
2 41592   0.0179 126.5261 0001633 216.6720 171.4854  1.00271454 35574
MUOS-5                  
1 41622U 16041A   26063.35669706 -.00000169  00000+0  00000+0 0  9991
2 41622   2.4313 299.8238 0195184 262.7398 342.8746  1.00271777 36034
TIANTONG-1 1            
1 41725U 16048A   26063.66625012 -.00000326  00000+0  00000+0 0  9993
2 41725   3.6509  42.4364 0005685 354.7918 106.4466  1.00272114 35225
JCSAT-16                
1 41729U 16050A   26063.58239373 -.00000263  00000+0  00000+0 0  9992
2 41729   0.0008 178.3902 0001082 175.0498 162.4879  1.00268161 35020
USA 270                 
1 41744U 16052A   26051.70824468 -.00000036  00000+0  00000+0 0  9995
2 41744   3.8986  78.6910 0003302 288.5278 204.8551  1.00327485 26963
USA 271                 
1 41745U 16052B   26051.81367943 -.00000346  00000+0  00000+0 0  9992
2 41745   3.8712  78.7558 0001639 331.9763 161.1961  1.00119522 26751
INTELSAT 36 (IS-36)     
1 41747U 16053A   26063.63360060 -.00000035  00000+0  00000+0 0  9996
2 41747   0.0191  91.4653 0001229 233.1456 134.3463  1.00270662 34917
INSAT-3DR               
1 41752U 16054A   26063.62512220 -.00000088  00000+0  00000+0 0  9997
2 41752   0.0478  96.4704 0013224 185.3950 179.5257  1.00272451 34772
GSAT-18                 
1 41793U 16060A   26063.49898241  .00000000  00000+0  00000+0 0  9997
2 41793   0.0253 159.5679 0003359 240.4424  15.8660  1.00269515 34471
SKY MUSTER 2 (NBN1B)    
1 41794U 16060B   26063.58239373  .00000000  00000+0  00000+0 0  9993
2 41794   0.0207 165.5536 0001635 187.8611 163.3857  1.00268049 34475
HIMAWARI-9              
1 41836U 16064A   26063.56433706 -.00000286  00000+0  00000+0 0  9995
2 41836   0.0143 179.2435 0001186 190.2974 136.7047  1.00272269 34162
SHIJIAN-17 (SJ-17)      
1 41838U 16065A   26063.20114140  .00000107  00000+0  00000+0 0  9998
2 41838   5.4861  73.8684 0000932 304.9278 246.2734  0.99861102 34150
GOES 16                 
1 41866U 16071A   26063.35669706 -.00000102  00000+0  00000+0 0  9991
2 41866   0.1377  89.7852 0002555 217.0177 239.0082  1.00271047 34054
TIANLIAN 1-04           
1 41869U 16072A   26063.48239072  .00000019  00000+0  00000+0 0  9994
2 41869   0.5963  83.5587 0040758  95.5465 333.5231  1.00273244 34254
WGS F8 (USA 272)        
1 41879U 16075A   26063.42891916 -.00000214  00000+0  00000+0 0  9991
2 41879   0.0083 162.7764 0000266 281.9080  21.6980  1.00270672 33778
FENGYUN 4A              
1 41882U 16077A   26063.13308794 -.00000369  00000+0  00000+0 0  9993
2 41882   2.0552  81.4150 0007464 135.8137 116.1229  1.00279325 33879
ECHOSTAR 19             
1 41893U 16079A   26063.35114212 -.00000150  00000+0  00000+0 0  9999
2 41893   0.0150 119.8123 0001566 223.7746 207.8184  1.00271819 33653
JCSAT-110A (JCSAT-15)   
1 41903U 16082A   26063.03614713 -.00000364  00000+0  00000+0 0  9998
2 41903   0.0144 143.4488 0000577 213.3546 288.0533  1.00271059 33700
STAR ONE D1             
1 41904U 16082B   26063.34558462 -.00000223  00000+0  00000+0 0  9995
2 41904   0.0203 101.9681 0002169 245.8452 214.6830  1.00271234 33728
TJS-2                   
1 41911U 17001A   26063.65095548 -.00000017  00000+0  00000+0 0  9991
2 41911   0.5633  86.9483 0001811 249.9159 126.3978  1.00271836 33676
SBIRS GEO-4 (USA 273)   
1 41937U 17004A   26063.37128004  .00000113  00000+0  00000+0 0  9991
2 41937   2.0487  40.0665 0002415 303.3120 333.2901  1.00272447 33545
HISPASAT 36W-1          
1 41942U 17006A   26063.33794595 -.00000256  00000+0  00000+0 0  9998
2 41942   0.0142 323.9204 0001032  11.0031 272.8206  1.00271838 33197
TELKOM 3S               
1 41944U 17007A   26063.43601572 -.00000374  00000+0  00000+0 0  9995
2 41944   0.0091 146.0839 0002367 199.3774  91.6728  1.00270314 33088
INTELSAT 32E (IS-32E)   
1 41945U 17007B   26063.33794595 -.00000281  00000+0  00000+0 0  9990
2 41945   0.0172 127.0773 0000386 135.5633 337.9102  1.00269658 33171
ECHOSTAR 23             
1 42070U 17014A   26063.41503086 -.00000068  00000+0  00000+0 0  9993
2 42070   0.0211 135.7759 0002022 212.1153 213.7686  1.00271126 32870
WGS F9 (USA 275)        
1 42075U 17016A   26063.38794803  .00000000  00000+0  00000+0 0  9990
2 42075   0.0241 158.7974 0000878  80.0178  51.0330  1.00269245 32843
SES-10                  
1 42432U 17017A   26063.34003264 -.00000284  00000+0  00000+0 0  9993
2 42432   0.0212  73.6872 0002699 276.1470 227.7463  1.00269378 32707
CHINASAT 16 (SJ-13)     
1 42662U 17018A   26063.15530741 -.00000364  00000+0  00000+0 0  9992
2 42662   0.0410  96.7567 0005565 168.1088  63.4547  1.00268744 32691
KOREASAT 7              
1 42691U 17023A   26063.43601572 -.00000373  00000+0  00000+0 0  9992
2 42691   0.0305  29.1528 0001774 340.9648  64.9204  1.00271366 32312
SGDC                    
1 42692U 17023B   26062.75918876 -.00000263  00000+0  00000+0 0  9993
2 42692   0.0193 115.9400 0002764 240.8309   3.1929  1.00271798 32355
GSAT-9                  
1 42695U 17024A   26063.58476924 -.00000297  00000+0  00000+0 0  9999
2 42695   0.1044 281.8024 0002030  64.4246 123.9433  1.00271153 32250
INMARSAT 5-F4           
1 42698U 17025A   26063.60782973  .00000064  00000+0  00000+0 0  9991
2 42698   0.0210 131.4545 0000267 206.7517  99.4476  1.00271636 32224
SES-15                  
1 42709U 17026A   26063.49419836  .00000049  00000+0  00000+0 0  9990
2 42709   0.0422 304.7457 0000720  40.1185 226.1090  1.00270841  6380
QZS-2 (MICHIBIKI-2)     
1 42738U 17028A   26063.52022194 -.00000176  00000+0  00000+0 0  9997
2 42738  39.5902 244.6778 0745655 270.3311 336.1474  1.00261975  6578
VIASAT-2                
1 42740U 17029A   26063.34003264 -.00000277  00000+0  00000+0 0  9990
2 42740   0.0258 249.8701 0000550 113.6701 211.0567  1.00273336 32152
EUTELSAT 172B           
1 42741U 17029B   26063.54766952 -.00000017  00000+0  00000+0 0  9995
2 42741   0.0194 154.2913 0000140 131.3870 245.7531  1.00272243 32695
GSAT-19                 
1 42747U 17031A   26063.29905912  .00000113  00000+0  00000+0 0  9993
2 42747   0.0123 119.2579 0004584 262.6640 295.6414  1.00273784 32090
ECHOSTAR 21             
1 42749U 17032A   26063.37683795  .00000054  00000+0  00000+0 0  9991
2 42749   1.7936 348.8311 0002697 339.3226 339.8661  1.00272365 32045
BULGARIASAT-1           
1 42801U 17038A   26063.38239013  .00000000  00000+0  00000+0 0  9998
2 42801   0.0445 263.1189 0003144  93.4581 305.0946  1.00274243 31781
